ONEWEB-0387             
1 49313U 21090AL  24176.19232761  .00000048  00000+0  85651-4 0  9993
2 49313  87.9209  58.3524 0001502  87.3773 272.7532 13.20772600134382
ONEWEB-0388             
1 49314U 21090AM  24176.26727096  .00000086  00000+0  18321-3 0  9993
2 49314  87.9156  88.8351 0002097  81.0431 279.0939 13.19725145131065
ONEWEB-0389             
1 50469U 21132A   24176.43889286  .00002945  00000+0  75593-2 0  9991
2 50469  87.9171 149.7515 0001788  92.6247 267.5090 13.17567375122903
ONEWEB-0390             
1 50470U 21132B   24176.44052524  .00003039  00000+0  78004-2 0  9996
2 50470  87.9167 149.7602 0001793  79.0012 281.1322 13.17560086122904
ONEWEB-0391             
1 50471U 21132C   24176.44214157 -.00000186  00000+0 -51373-3 0  9992
2 50471  87.9181 149.7423 0001801  97.7793 262.3542 13.17531768122905
ONEWEB-0392             
1 50472U 21132D   24176.47126392  .00000063  00000+0  12972-3 0  9993
2 50472  87.9165 149.7351 0001607  96.1402 263.9913 13.17711353122945
ONEWEB-0393             
1 50473U 21132E   24176.44551256  .00000084  00000+0  18273-3 0  9995
2 50473  87.9174 149.7175 0001807  89.8902 270.2436 13.17518506122931
ONEWEB-0394             
1 50474U 21132F   24176.37417747 -.00000001  00000+0 -36265-4 0  9997
2 50474  87.9143 119.3481 0002040  82.8498 277.2866 13.18684237126332
